{"type": "FeatureCollection", "name": "1er_bat_C", "features": [{"type": "Feature", "properties": {"fid": 28, "id": null, "type": "bureau", "name": "C100"}, "geometry": {"type": "Polygon", "coordinates": [[[5.1455727048261375, 48.11637792154195], [5.145585916514979, 48.11639163595433], [5.145626730260772, 48.11637385182246], [5.14557632259963, 48.11632413873994], [5.1455512427172785, 48.11633469313095], [5.145566529705499, 48.1163496730996], [5.145550673679338, 48.11635693197188], [5.1455727048261375, 48.11637792154195]]]}}, {"type": "Feature", "properties": {"fid": 29, "id": null, "type": "bureau", "name": "C101"}, "geometry": {"type": "Polygon", "coordinates": [[[5.145626730260772, 48.11637385182246], [5.145667335710718, 48.116356158427074], [5.145632363177291, 48.11632051853349], [5.145591196358064, 48.11633880756161], [5.145626730260772, 48.11637385182246]]]}}, {"type": "Feature", "properties": {"fid": 30, "id": null, "type": "WC", "name": "WC"}, "geometry": {"type": "Polygon", "coordinates": [[[5.145565853784091, 48.11628181440812], [5.145598879822152, 48.116317520411144], [5.145619873215658, 48.11630820884194], [5.1455848053957745, 48.11627353940572], [5.145565853784091, 48.11628181440812]]]}}, {"type": "Feature", "properties": {"fid": 31, "id": null, "type": "WC", "name": "WC"}, "geometry": {"type": "Polygon", "coordinates": [[[5.1455848053957745, 48.11627353940572], [5.145605011781305, 48.11626471651453], [5.1456403810014315, 48.116299441062225], [5.145619873215658, 48.11630820884194], [5.1455848053957745, 48.11627353940572]]]}}, {"type": "Feature", "properties": {"fid": 32, "id": null, "type": "bureau", "name": "C102"}, "geometry": {"type": "Polygon", "coordinates": [[[5.145605011781305, 48.11626471651453], [5.1456403810014315, 48.116299441062225], [5.145701270561604, 48.11627273628933], [5.145665483350637, 48.116236919496295], [5.145624698733579, 48.11625475164438], [5.1456256201939174, 48.11625571807609], [5.145605011781305, 48.11626471651453]]]}}, {"type": "Feature", "properties": {"fid": 33, "id": null, "type": "bureau", "name": "C104"}, "geometry": {"type": "Polygon", "coordinates": [[[5.145701270561604, 48.11627273628933], [5.14574487183135, 48.11625409519234], [5.145708912043746, 48.11621793125701], [5.145665483350637, 48.116236919496295], [5.145701270561604, 48.11627273628933]]]}}, {"type": "Feature", "properties": {"fid": 34, "id": null, "type": "bureau", "name": "C103"}, "geometry": {"type": "Polygon", "coordinates": [[[5.145667335710718, 48.116356158427074], [5.145708223247221, 48.11633834208915], [5.145672794376419, 48.11630289662258], [5.145632363177291, 48.11632051853349], [5.145667335710718, 48.116356158427074]]]}}, {"type": "Feature", "properties": {"fid": 35, "id": null, "type": "bureau", "name": "C105"}, "geometry": {"type": "Polygon", "coordinates": [[[5.145708223247221, 48.11633834208915], [5.145749187139525, 48.11632049245348], [5.145713525276879, 48.11628506250752], [5.145672794376419, 48.11630289662258], [5.145708223247221, 48.11633834208915]]]}}, {"type": "Feature", "properties": {"fid": 36, "id": null, "type": "bureau", "name": "C107"}, "geometry": {"type": "Polygon", "coordinates": [[[5.145749187139525, 48.11632049245348], [5.1457913969152305, 48.11630209990796], [5.145756128596663, 48.11626642783979], [5.145713525276879, 48.11628506250752], [5.145749187139525, 48.11632049245348]]]}}, {"type": "Feature", "properties": {"fid": 37, "id": null, "type": "bureau", "name": "C109"}, "geometry": {"type": "Polygon", "coordinates": [[[5.1457913969152305, 48.11630209990796], [5.145834599771687, 48.11628327460696], [5.1458213573299485, 48.11626952800713], [5.145798139973403, 48.11624796217521], [5.145756128596663, 48.11626642783979], [5.1457913969152305, 48.11630209990796]]]}}, {"type": "Feature", "properties": {"fid": 38, "id": null, "type": "bureau", "name": "C111"}, "geometry": {"type": "Polygon", "coordinates": [[[5.145798139973403, 48.11624796217521], [5.145784503876853, 48.116234713729035], [5.145825306700222, 48.1162164285576], [5.145860930816962, 48.1162523462374], [5.1458213573299485, 48.11626952800713], [5.145798139973403, 48.11624796217521]]]}}, {"type": "Feature", "properties": {"fid": 39, "id": null, "type": "bureau", "name": "C113"}, "geometry": {"type": "Polygon", "coordinates": [[[5.145860930816962, 48.1162523462374], [5.145903349427576, 48.1162339291623], [5.1458886696526935, 48.11621952738391], [5.145867221307091, 48.116198256350536], [5.145825306700222, 48.1162164285576], [5.145860930816962, 48.1162523462374]]]}}, {"type": "Feature", "properties": {"fid": 40, "id": null, "type": "bureau", "name": "C115"}, "geometry": {"type": "Polygon", "coordinates": [[[5.1458886696526935, 48.11621952738391], [5.145951498455026, 48.116192665653486], [5.145911362572393, 48.11615078432454], [5.145846513046278, 48.11617903863176], [5.145867221307091, 48.116198256350536], [5.1458886696526935, 48.11621952738391]]]}}, {"type": "Feature", "properties": {"fid": 41, "id": null, "type": "bureau", "name": "C110"}, "geometry": {"type": "Polygon", "coordinates": [[[5.145764935196936, 48.11615452803297], [5.145778159088321, 48.11616782908938], [5.145792047414901, 48.1161829942113], [5.145823084009374, 48.11616947276971], [5.145834400283996, 48.1161648867728], [5.14580692222061, 48.11613748393739], [5.145805826834933, 48.11613704532947], [5.145764935196936, 48.11615452803297]]]}}, {"type": "Feature", "properties": {"fid": 42, "id": null, "type": "bureau", "name": "C112"}, "geometry": {"type": "Polygon", "coordinates": [[[5.14580692222061, 48.11613748393739], [5.145834400283996, 48.1161648867728], [5.145823084009374, 48.11616947276971], [5.145834436447824, 48.11618105011773], [5.1458440414585, 48.11617677552169], [5.145846513046278, 48.11617903863176], [5.145911362572393, 48.11615078432454], [5.145871226753343, 48.116108902980784], [5.14580692222061, 48.11613748393739]]]}}, {"type": "Feature", "properties": {"fid": 43, "id": null, "type": "bureau", "name": "C108"}, "geometry": {"type": "Polygon", "coordinates": [[[5.145778159088321, 48.11616782908938], [5.145736848883506, 48.11618608022334], [5.145771777610746, 48.11622195877809], [5.145813166864943, 48.11620468357354], [5.145792047414901, 48.1161829942113], [5.145778159088321, 48.11616782908938]]]}}, {"type": "Feature", "properties": {"fid": 44, "id": null, "type": "bureau", "name": "C106"}, "geometry": {"type": "Polygon", "coordinates": [[[5.145771777610746, 48.11622195877809], [5.145731109152747, 48.116240254388714], [5.145708912043746, 48.11621793125701], [5.145695538650173, 48.11620433134261], [5.145736848883506, 48.11618608022334], [5.145771777610746, 48.11622195877809]]]}}, {"type": "Feature", "properties": {"fid": 46, "id": null, "type": "\u00e9tage", "name": "1er Batiment C"}, "geometry": {"type": "Polygon", "coordinates": [[[5.145871226753343, 48.116108902980784], [5.14580692222061, 48.11613748393739], [5.145805826834933, 48.11613704532947], [5.145764935196936, 48.11615452803297], [5.145778159088321, 48.11616782908938], [5.145736848883506, 48.11618608022334], [5.145695538650173, 48.11620433134261], [5.145708912043746, 48.11621793125701], [5.145665483350637, 48.116236919496295], [5.145624698733579, 48.11625475164438], [5.1456256201939174, 48.11625571807609], [5.145605011781305, 48.11626471651453], [5.1455848053957745, 48.11627353940572], [5.145565853784091, 48.11628181440812], [5.145546790691882, 48.11629048309221], [5.145567517412879, 48.11631118475049], [5.1455646241166, 48.11631264235076], [5.14557632259963, 48.11632413873994], [5.1455512427172785, 48.11633469313095], [5.145566529705499, 48.1163496730996], [5.145550673679338, 48.11635693197188], [5.1455727048261375, 48.11637792154195], [5.145585916514979, 48.11639163595433], [5.145626730260772, 48.11637385182246], [5.145667335710718, 48.116356158427074], [5.145708223247221, 48.11633834208915], [5.145749187139525, 48.11632049245348], [5.1457913969152305, 48.11630209990796], [5.145834599771687, 48.11628327460696], [5.1458213573299485, 48.11626952800713], [5.145860930816962, 48.1162523462374], [5.145903349427576, 48.1162339291623], [5.1458886696526935, 48.11621952738391], [5.145951498455026, 48.116192665653486], [5.145911362572393, 48.11615078432454], [5.145871226753343, 48.116108902980784]]]}}]}