{"type": "FeatureCollection", "name": "1er_bat_B", "features": [{"type": "Feature", "properties": {"fid": 1, "id": null, "type": "bureau", "name": "B105"}, "geometry": {"type": "Polygon", "coordinates": [[[5.145032850900002, 48.116311299936655], [5.145047677935304, 48.11632606956156], [5.145076139917059, 48.11635376170765], [5.144942057961435, 48.116413264550644], [5.144898949553392, 48.11637122165266], [5.145032850900002, 48.116311299936655]]]}}, {"type": "Feature", "properties": {"fid": 2, "id": null, "type": "bureau", "name": "B103"}, "geometry": {"type": "Polygon", "coordinates": [[[5.145076139917059, 48.11635376170765], [5.145103963437541, 48.11638041047598], [5.145044668736413, 48.116406631815416], [5.145017072434269, 48.11637997468991], [5.145076139917059, 48.11635376170765]]]}}, {"type": "Feature", "properties": {"fid": 3, "id": null, "type": "bureau", "name": "B104"}, "geometry": {"type": "Polygon", "coordinates": [[[5.144942057961435, 48.116413264550644], [5.144969200643008, 48.11643973630385], [5.1450264948610425, 48.116414506697915], [5.144999097507245, 48.116387951596415], [5.144942057961435, 48.116413264550644]]]}}, {"type": "Feature", "properties": {"fid": 4, "id": null, "type": "bureau", "name": "B102"}, "geometry": {"type": "Polygon", "coordinates": [[[5.1450264948610425, 48.116414506697915], [5.144969200643008, 48.11643973630385], [5.1449966651795, 48.11646652192237], [5.145053857993485, 48.11644136789398], [5.1450264948610425, 48.116414506697915]]]}}, {"type": "Feature", "properties": {"fid": 5, "id": null, "type": "bureau", "name": "B101"}, "geometry": {"type": "Polygon", "coordinates": [[[5.145044668736413, 48.116406631815416], [5.14507259132187, 48.1164331989046], [5.145130971407316, 48.11640738652073], [5.145103963437541, 48.11638041047598], [5.145044668736413, 48.116406631815416]]]}}, {"type": "Feature", "properties": {"fid": 6, "id": null, "type": "WC", "name": "WC"}, "geometry": {"type": "Polygon", "coordinates": [[[5.1451018831420186, 48.11643827571876], [5.145061783692571, 48.11645611262136], [5.145076251539433, 48.11647003372657], [5.145116511162973, 48.11645244834019], [5.1451018831420186, 48.11643827571876]]]}}, {"type": "Feature", "properties": {"fid": 7, "id": null, "type": "bureau", "name": "B100"}, "geometry": {"type": "Polygon", "coordinates": [[[5.145076251539433, 48.11647003372657], [5.14507695837116, 48.11647069152902], [5.14503425281283, 48.11649104177785], [5.145025470436917, 48.116494615082914], [5.1449966651795, 48.11646652192237], [5.14504916993131, 48.11644342975723], [5.145061783692571, 48.11645611262136], [5.145076251539433, 48.11647003372657]]]}}, {"type": "Feature", "properties": {"fid": 45, "id": null, "type": "\u00e9tage", "name": "1er \u00e9tage B\u00e2timent B"}, "geometry": {"type": "Polygon", "coordinates": [[[5.14514538256387, 48.11642152957419], [5.145032850900002, 48.116311299936655], [5.144898949553392, 48.11637122165266], [5.145025470436917, 48.116494615082914], [5.14503425281283, 48.11649104177785], [5.1451170001965805, 48.11645575374158], [5.145117576468411, 48.116456443770986], [5.145127345174916, 48.116465733352015], [5.14517065765364, 48.116446268907914], [5.145161254828794, 48.11643688108851], [5.14514538256387, 48.11642152957419]]]}}]}