{"type": "FeatureCollection", "name": "1er_bat_A", "features": [{"type": "Feature", "properties": {"fid": 8, "id": null, "type": "bureau", "name": "A102"}, "geometry": {"type": "Polygon", "coordinates": [[[5.145117576468411, 48.116456443770986], [5.1451452309297725, 48.11648274185405], [5.14512521286518, 48.11649151609586], [5.145083916442449, 48.11650960336885], [5.145056032856935, 48.11648340323539], [5.145117576468411, 48.116456443770986]]]}}, {"type": "Feature", "properties": {"fid": 9, "id": null, "type": "bureau", "name": "A100"}, "geometry": {"type": "Polygon", "coordinates": [[[5.14512521286518, 48.11649151609586], [5.14515454006567, 48.11651990683274], [5.145112606110313, 48.11653816811338], [5.145083916442449, 48.11650960336885], [5.14512521286518, 48.11649151609586]]]}}, {"type": "Feature", "properties": {"fid": 10, "id": null, "type": "bureau", "name": "A101"}, "geometry": {"type": "Polygon", "coordinates": [[[5.145112606110313, 48.11653816811338], [5.1451416473005676, 48.11656674597802], [5.145204428920239, 48.11653924471853], [5.14517513098738, 48.11651088767671], [5.14515454006567, 48.11651990683274], [5.145112606110313, 48.11653816811338]]]}}, {"type": "Feature", "properties": {"fid": 11, "id": null, "type": "bureau", "name": "A103"}, "geometry": {"type": "Polygon", "coordinates": [[[5.14517513098738, 48.11651088767671], [5.14521573995887, 48.11649309426332], [5.1452451574355464, 48.11652140370752], [5.145204428920239, 48.11653924471853], [5.14517513098738, 48.11651088767671]]]}}, {"type": "Feature", "properties": {"fid": 12, "id": null, "type": "WC", "name": "WC"}, "geometry": {"type": "Polygon", "coordinates": [[[5.145207340228161, 48.116485130249735], [5.14521573995887, 48.11649309426332], [5.1452451574355464, 48.11652140370752], [5.145265519161941, 48.11651248430096], [5.145228045697455, 48.11647606210235], [5.145207340228161, 48.116485130249735]]]}}, {"type": "Feature", "properties": {"fid": 13, "id": null, "type": "WC", "name": "WC"}, "geometry": {"type": "Polygon", "coordinates": [[[5.145228045697455, 48.11647606210235], [5.145248032012354, 48.11646708542327], [5.145285538384297, 48.116503714921095], [5.145265519161941, 48.11651248430096], [5.145228045697455, 48.11647606210235]]]}}, {"type": "Feature", "properties": {"fid": 14, "id": null, "type": "bureau", "name": "A104"}, "geometry": {"type": "Polygon", "coordinates": [[[5.14519987123893, 48.1164199610323], [5.145161254828794, 48.11643688108851], [5.1451977662979775, 48.11647333426791], [5.14523686405901, 48.11645615663417], [5.14519987123893, 48.1164199610323]]]}}, {"type": "Feature", "properties": {"fid": 15, "id": null, "type": "bureau", "name": "A106"}, "geometry": {"type": "Polygon", "coordinates": [[[5.14519987123893, 48.1164199610323], [5.14523686405901, 48.11645615663417], [5.145276618184592, 48.11643861431625], [5.145240046653296, 48.116402357862114], [5.14519987123893, 48.1164199610323]]]}}, {"type": "Feature", "properties": {"fid": 16, "id": null, "type": "bureau", "name": "A108"}, "geometry": {"type": "Polygon", "coordinates": [[[5.145276618184592, 48.11643861431625], [5.145317329432597, 48.11642095693424], [5.145280545305001, 48.11638461303706], [5.145240046653296, 48.116402357862114], [5.145276618184592, 48.11643861431625]]]}}, {"type": "Feature", "properties": {"fid": 17, "id": null, "type": "bureau", "name": "A110"}, "geometry": {"type": "Polygon", "coordinates": [[[5.145317329432597, 48.11642095693424], [5.145357545446466, 48.116403175072215], [5.145320596889081, 48.116367064072826], [5.145280545305001, 48.11638461303706], [5.145317329432597, 48.11642095693424]]]}}, {"type": "Feature", "properties": {"fid": 18, "id": null, "type": "bureau", "name": "A112"}, "geometry": {"type": "Polygon", "coordinates": [[[5.145357545446466, 48.116403175072215], [5.145398037500863, 48.1163854852825], [5.14536097113649, 48.116349373704985], [5.145320596889081, 48.116367064072826], [5.145357545446466, 48.116403175072215]]]}}, {"type": "Feature", "properties": {"fid": 19, "id": null, "type": "bureau", "name": "A114"}, "geometry": {"type": "Polygon", "coordinates": [[[5.145398037500863, 48.1163854852825], [5.145440750067453, 48.11636663601473], [5.145404126178579, 48.116330464876384], [5.14536097113649, 48.116349373704985], [5.145398037500863, 48.1163854852825]]]}}, {"type": "Feature", "properties": {"fid": 20, "id": null, "type": "bureau", "name": "A116"}, "geometry": {"type": "Polygon", "coordinates": [[[5.145404126178579, 48.116330464876384], [5.145440750067453, 48.11636663601473], [5.145522916092413, 48.116330486663266], [5.145485478861012, 48.11629481927574], [5.145404126178579, 48.116330464876384]]]}}, {"type": "Feature", "properties": {"fid": 21, "id": null, "type": "bureau", "name": "A117"}, "geometry": {"type": "Polygon", "coordinates": [[[5.1455727048261375, 48.11637792154195], [5.145529367025737, 48.11639690576725], [5.145492225464132, 48.1163605972911], [5.145534721909049, 48.11634173434768], [5.1455727048261375, 48.11637792154195]]]}}, {"type": "Feature", "properties": {"fid": 22, "id": null, "type": "bureau", "name": "A115"}, "geometry": {"type": "Polygon", "coordinates": [[[5.145492225464132, 48.1163605972911], [5.145451972489763, 48.116378142898114], [5.145488994734621, 48.11641459091743], [5.145529367025737, 48.11639690576725], [5.145492225464132, 48.1163605972911]]]}}, {"type": "Feature", "properties": {"fid": 23, "id": null, "type": "bureau", "name": "A113"}, "geometry": {"type": "Polygon", "coordinates": [[[5.145451972489763, 48.116378142898114], [5.1454092228798745, 48.11639675586836], [5.145445960843394, 48.11643344195755], [5.145488994734621, 48.11641459091743], [5.145451972489763, 48.116378142898114]]]}}, {"type": "Feature", "properties": {"fid": 24, "id": null, "type": "bureau", "name": "A111"}, "geometry": {"type": "Polygon", "coordinates": [[[5.145445960843394, 48.11643344195755], [5.145405761618521, 48.11645105124262], [5.145368207149358, 48.11641429134264], [5.1454092228798745, 48.11639675586836], [5.145445960843394, 48.11643344195755]]]}}, {"type": "Feature", "properties": {"fid": 25, "id": null, "type": "bureau", "name": "A109"}, "geometry": {"type": "Polygon", "coordinates": [[[5.145405761618521, 48.11645105124262], [5.145365568252734, 48.116468657935485], [5.145328473991877, 48.11643211890691], [5.145368207149358, 48.11641429134264], [5.145405761618521, 48.11645105124262]]]}}, {"type": "Feature", "properties": {"fid": 26, "id": null, "type": "bureau", "name": "A107"}, "geometry": {"type": "Polygon", "coordinates": [[[5.145365568252734, 48.116468657935485], [5.145325465345217, 48.11648622497758], [5.145288017887507, 48.1164495831639], [5.145328473991877, 48.11643211890691], [5.145365568252734, 48.116468657935485]]]}}, {"type": "Feature", "properties": {"fid": 27, "id": null, "type": "bureau", "name": "A105"}, "geometry": {"type": "Polygon", "coordinates": [[[5.145288017887507, 48.1164495831639], [5.145248032012354, 48.11646708542327], [5.145285538384297, 48.116503714921095], [5.145325465345217, 48.11648622497758], [5.145288017887507, 48.1164495831639]]]}}, {"type": "Feature", "properties": {"fid": 28, "id": null, "type": "\u00e9tage", "name": "1er Batiment A"}, "geometry": {"type": "Polygon", "coordinates": [[[5.145056032856935, 48.11648340323539], [5.145083916442449, 48.11650960336885], [5.145112606110313, 48.11653816811338], [5.1451416473005676, 48.11656674597802], [5.145204428920239, 48.11653924471853], [5.1452451574355464, 48.11652140370752], [5.145265519161941, 48.11651248430096], [5.145285538384297, 48.116503714921095], [5.145325465345217, 48.11648622497758], [5.145365568252734, 48.116468657935485], [5.145405761618521, 48.11645105124262], [5.145445960843394, 48.11643344195755], [5.145488994734621, 48.11641459091743], [5.145529367025737, 48.11639690576725], [5.1455727048261375, 48.11637792154195], [5.145542750035466, 48.11634938293264], [5.145558886210307, 48.11634218311554], [5.1455512427172785, 48.11633469313095], [5.145552106529192, 48.116334329612314], [5.145540665061956, 48.11632280290868], [5.145531758374122, 48.11631382866707], [5.14552076621458, 48.11630325027557], [5.145502798050665, 48.11631131970883], [5.145485478861012, 48.11629481927574], [5.145404126178579, 48.116330464876384], [5.14536097113649, 48.116349373704985], [5.145320596889081, 48.116367064072826], [5.145280545305001, 48.11638461303706], [5.145240046653296, 48.116402357862114], [5.14519987123893, 48.1164199610323], [5.145161254828794, 48.11643688108851], [5.1451709930802245, 48.11644660379913], [5.145127170305079, 48.11646556705905], [5.145117576468411, 48.116456443770986], [5.145056032856935, 48.11648340323539]]]}}]}