{"type": "FeatureCollection", "name": "rdc_bat_B", "features": [{"type": "Feature", "properties": {"fid": 2, "id": null, "type": "salle de r\u00e9union", "name": "Pisani"}, "geometry": {"type": "Polygon", "coordinates": [[[5.145067360317729, 48.11631745075025], [5.145070914457649, 48.116305410973304], [5.145089148169577, 48.116307773075185], [5.145108092449587, 48.116298948330716], [5.145111218784591, 48.11628745421508], [5.145129067626561, 48.116289980851704], [5.145149273065542, 48.11628134245091], [5.145151629659853, 48.116270177416084], [5.145169932935581, 48.116272328376986], [5.145190460687245, 48.11626296266595], [5.14520462999943, 48.116277332820395], [5.145219635026738, 48.116279138678635], [5.145219069687822, 48.116291105338206], [5.1452311909352195, 48.11630371274435], [5.145249640100067, 48.11630680891064], [5.145246166255651, 48.11631846919341], [5.145258970513224, 48.116331054134356], [5.145276631657929, 48.116333745969605], [5.145273215559408, 48.11634504464234], [5.145287506256263, 48.116359083019574], [5.145163022477527, 48.116413778935794], [5.145067360317729, 48.11631745075025]]]}}, {"type": "Feature", "properties": {"fid": 3, "id": null, "type": "Salle", "name": "Annexe Pisani"}, "geometry": {"type": "Polygon", "coordinates": [[[5.145083869473653, 48.116333984089074], [5.145067360317729, 48.11631745075025], [5.145047677935304, 48.11632606956156], [5.1450638690148685, 48.11634397439831], [5.145083869473653, 48.116333984089074]]]}}, {"type": "Feature", "properties": {"fid": 4, "id": null, "type": "Bureau", "name": "B5"}, "geometry": {"type": "Polygon", "coordinates": [[[5.145088469569904, 48.116368781570614], [5.1450638690148685, 48.11634397439831], [5.145047677935304, 48.11632606956156], [5.145032850900002, 48.116311299936655], [5.144991648686095, 48.116329738223975], [5.145049661709985, 48.116386461279205], [5.145088469569904, 48.116368781570614]]]}}, {"type": "Feature", "properties": {"fid": 5, "id": null, "type": "Bureau", "name": "B4"}, "geometry": {"type": "Polygon", "coordinates": [[[5.145049661709985, 48.116386461279205], [5.14500911592285, 48.11640364948904], [5.144951506362004, 48.11634770217654], [5.145032850900002, 48.116311299936655], [5.144991648686095, 48.116329738223975], [5.145049661709985, 48.116386461279205]]]}}, {"type": "Feature", "properties": {"fid": 7, "id": null, "type": "Local", "name": "Local \u00e0 v\u00e9lo"}, "geometry": {"type": "Polygon", "coordinates": [[[5.144951506362004, 48.11634770217654], [5.144898949553392, 48.11637122165266], [5.144956258301313, 48.11642711388252], [5.14500911592285, 48.11640364948904], [5.144951506362004, 48.11634770217654], [5.14500911592285, 48.11640364948904], [5.144951506362004, 48.11634770217654]]]}}, {"type": "Feature", "properties": {"fid": 8, "id": null, "type": "Bureau", "name": "B2"}, "geometry": {"type": "Polygon", "coordinates": [[[5.14500911592285, 48.11640364948904], [5.144956258301316, 48.11642711388252], [5.144982932430849, 48.116453128648836], [5.145036399320294, 48.11642980554047], [5.14500911592285, 48.11640364948904]]]}}, {"type": "Feature", "properties": {"fid": 9, "id": null, "type": "Bureau", "name": "B1"}, "geometry": {"type": "Polygon", "coordinates": [[[5.1449829324308505, 48.116453128648836], [5.145025470436917, 48.116494615082914], [5.145078447174254, 48.11647119994675], [5.145036399320294, 48.11642980554047], [5.1449829324308505, 48.116453128648836]]]}}, {"type": "Feature", "properties": {"fid": 21, "id": null, "type": "Salle", "name": "Annexe Pisani"}, "geometry": {"type": "Polygon", "coordinates": [[[5.145147973035096, 48.1163986247439], [5.1451354322827125, 48.116404272370076], [5.145150977598786, 48.11641907122412], [5.145163022477524, 48.116413778935794], [5.145147973035096, 48.1163986247439]]]}}, {"type": "Feature", "properties": {"fid": 24, "id": null, "type": "Etage", "name": "rez de chauss\u00e9e B\u00e2timent B"}, "geometry": {"type": "Polygon", "coordinates": [[[5.14503425281283, 48.11649104177785], [5.145161254828794, 48.11643688108851], [5.14514538256387, 48.11642152957419], [5.145287506256263, 48.116359083019574], [5.145273215559408, 48.11634504464234], [5.145276631657929, 48.116333745969605], [5.145258970513224, 48.116331054134356], [5.145246166255651, 48.11631846919341], [5.145249640100067, 48.11630680891064], [5.1452311909352195, 48.11630371274435], [5.145219069687822, 48.116291105338206], [5.145219635026738, 48.116279138678635], [5.14520462999943, 48.116277332820395], [5.145190460687245, 48.11626296266595], [5.145169932935581, 48.116272328376986], [5.145151629659853, 48.116270177416084], [5.145149273065542, 48.11628134245091], [5.145129067626561, 48.116289980851704], [5.145111218784591, 48.11628745421508], [5.145108092449587, 48.116298948330716], [5.145089148169577, 48.116307773075185], [5.145070914457649, 48.116305410973304], [5.145067360317729, 48.11631745075025], [5.145047677935304, 48.11632606956156], [5.145032850900002, 48.116311299936655], [5.144898949553392, 48.11637122165266], [5.145025470436917, 48.116494615082914], [5.14503425281283, 48.11649104177785]]]}}]}