{"type": "FeatureCollection", "name": "rdc_bat_C", "features": [{"type": "Feature", "properties": {"fid": 20, "id": 0, "type": "Etage", "name": "rez de chauss\u00e9e B\u00e2timent C"}, "geometry": {"type": "Polygon", "coordinates": [[[5.145485478861012, 48.11629481927574], [5.1455727048261375, 48.11637792154195], [5.145585916514979, 48.11639163595433], [5.145834599771687, 48.11628327460696], [5.1458213573299485, 48.11626952800713], [5.145903349427576, 48.1162339291623], [5.1458886696526935, 48.11621952738391], [5.145951498455026, 48.116192665653486], [5.145871226753343, 48.116108902980784], [5.14580692222061, 48.11613748393739], [5.145805826834933, 48.11613704532947], [5.145764935196936, 48.11615452803297], [5.145778159088321, 48.11616782908938], [5.145695538650173, 48.11620433134261], [5.145708912043746, 48.11621793125701], [5.145624698733579, 48.11625475164438], [5.1456256201939174, 48.11625571807609], [5.145565853784091, 48.11628181440812], [5.145544363430777, 48.11625998543179], [5.145479331734858, 48.11628851416948], [5.145485478861012, 48.11629481927574]]]}}, {"type": "Feature", "properties": {"fid": 24, "id": null, "type": "Salle", "name": "Salle de r\u00e9union"}, "geometry": {"type": "Polygon", "coordinates": [[[5.145585916514979, 48.11639163595433], [5.1455727048261375, 48.11637792154195], [5.145551214560199, 48.11635744728153], [5.145568485449699, 48.11634996536404], [5.145552165576204, 48.11633432504602], [5.145577734749311, 48.11632276510852], [5.1456268404440815, 48.11637380381129], [5.145585916514979, 48.11639163595433]]]}}, {"type": "Feature", "properties": {"fid": 25, "id": null, "type": "Bureau", "name": "C3"}, "geometry": {"type": "Polygon", "coordinates": [[[5.145626840444081, 48.11637380381129], [5.145592297449875, 48.116337901071205], [5.145632936463749, 48.116319897323045], [5.145668119687416, 48.11635581681727], [5.145626840444081, 48.11637380381129]]]}}, {"type": "Feature", "properties": {"fid": 26, "id": null, "type": "Bureau", "name": "C5"}, "geometry": {"type": "Polygon", "coordinates": [[[5.14563435259235, 48.11632134308778], [5.145675385515818, 48.11630316249351], [5.145708481101476, 48.116338229731646], [5.145644315302922, 48.11636618932951], [5.145668119687416, 48.11635581681727], [5.14563435259235, 48.11632134308778]]]}}, {"type": "Feature", "properties": {"fid": 27, "id": null, "type": "Bureau", "name": "C7"}, "geometry": {"type": "Polygon", "coordinates": [[[5.145674282521845, 48.116301513659444], [5.145675385515818, 48.11630316249351], [5.145708481101476, 48.116338229731646], [5.1456864178052655, 48.11634784359719], [5.145708481101476, 48.116338229731646], [5.1456864178052655, 48.11634784359719], [5.145749485919751, 48.11632036226267], [5.145714667854518, 48.11628409044705], [5.145674282521845, 48.116301513659444]]]}}, {"type": "Feature", "properties": {"fid": 28, "id": null, "type": "Bureau", "name": "C9"}, "geometry": {"type": "Polygon", "coordinates": [[[5.145714667854518, 48.11628409044705], [5.145749485919751, 48.11632036226267], [5.145706431850132, 48.116339122673196], [5.145749485919751, 48.11632036226267], [5.145706431850132, 48.116339122673196], [5.145834599771687, 48.11628327460696], [5.1458213573299485, 48.11626952800713], [5.145798072505532, 48.116247332485614], [5.145714667854518, 48.11628409044705]]]}}, {"type": "Feature", "properties": {"fid": 29, "id": null, "type": "Bureau", "name": "C13"}, "geometry": {"type": "Polygon", "coordinates": [[[5.1458213573299485, 48.11626952800713], [5.145798072505532, 48.116247332485614], [5.145785926123711, 48.116233363335944], [5.145826417757271, 48.11621605166597], [5.145862353392563, 48.116251728591934], [5.1458213573299485, 48.11626952800713]]]}}, {"type": "Feature", "properties": {"fid": 30, "id": null, "type": "Bureau", "name": "C15"}, "geometry": {"type": "Polygon", "coordinates": [[[5.145862353392563, 48.116251728591934], [5.1458213573299485, 48.11626952800713], [5.145798072505532, 48.116247332485614], [5.145785926123711, 48.116233363335944], [5.145826417757271, 48.11621605166597], [5.145866503729655, 48.11619772678045], [5.1458886696526935, 48.11621952738391], [5.145903349427576, 48.1162339291623], [5.145862353392563, 48.116251728591934]]]}}, {"type": "Feature", "properties": {"fid": 31, "id": null, "type": "Bureau", "name": "C17"}, "geometry": {"type": "Polygon", "coordinates": [[[5.1458886696526935, 48.11621952738391], [5.145951498455026, 48.116192665653486], [5.145924975925273, 48.116164989709794], [5.1458727113795835, 48.11618757956986], [5.1458599189794825, 48.116174920087495], [5.1458463712494025, 48.11617926195837], [5.145866503729655, 48.11619772678045], [5.1458886696526935, 48.11621952738391]]]}}, {"type": "Feature", "properties": {"fid": 32, "id": null, "type": "Bureau", "name": "C14"}, "geometry": {"type": "Polygon", "coordinates": [[[5.1458599189794825, 48.116174920087495], [5.1458727113795835, 48.11618757956986], [5.145924975925273, 48.116164989709794], [5.145951498455026, 48.116192665653486], [5.145924975925273, 48.116164989709794], [5.145951498455026, 48.116192665653486], [5.14589901496105, 48.11613789971871], [5.145845838461511, 48.116160152447], [5.1458599189794825, 48.116174920087495]]]}}, {"type": "Feature", "properties": {"fid": 33, "id": null, "type": "Bureau", "name": "C12"}, "geometry": {"type": "Polygon", "coordinates": [[[5.145845838461511, 48.116160152447], [5.14589901496105, 48.11613789971871], [5.145951498455026, 48.116192665653486], [5.14589901496105, 48.11613789971871], [5.145951498455026, 48.116192665653486], [5.145871226753343, 48.116108902980784], [5.14580692222061, 48.11613748393739], [5.145805826834933, 48.11613704532947], [5.145827258584533, 48.11615770225095], [5.145839054641472, 48.11615265898995], [5.145845838461511, 48.116160152447]]]}}, {"type": "Feature", "properties": {"fid": 34, "id": null, "type": "Bureau", "name": "C10"}, "geometry": {"type": "Polygon", "coordinates": [[[5.14580692222061, 48.11613748393739], [5.145805826834933, 48.11613704532947], [5.145827258584533, 48.11615770225095], [5.145841339096662, 48.116172469893684], [5.14580089319904, 48.11619024546408], [5.145778159088321, 48.11616782908938], [5.145764935196936, 48.11615452803297], [5.14580692222061, 48.11613748393739]]]}}, {"type": "Feature", "properties": {"fid": 35, "id": null, "type": "Bureau", "name": "C8"}, "geometry": {"type": "Polygon", "coordinates": [[[5.145778159088321, 48.11616782908938], [5.14580089319904, 48.11619024546408], [5.145813266362541, 48.11620523877692], [5.14577327665865, 48.116222335850885], [5.145736848883506, 48.11618608022334], [5.145778159088321, 48.11616782908938]]]}}, {"type": "Feature", "properties": {"fid": 36, "id": null, "type": "Bureau", "name": "C6"}, "geometry": {"type": "Polygon", "coordinates": [[[5.145736848883506, 48.11618608022334], [5.145695538650173, 48.11620433134261], [5.145708912043746, 48.11621793125701], [5.145732069173577, 48.11623978063635], [5.14577327665865, 48.116222335850885], [5.145736848883506, 48.11618608022334]]]}}, {"type": "Feature", "properties": {"fid": 37, "id": null, "type": "Bureau", "name": "C4"}, "geometry": {"type": "Polygon", "coordinates": [[[5.145708912043746, 48.11621793125701], [5.145666805403323, 48.116236341458325], [5.145703249609287, 48.11627319691454], [5.145745456162677, 48.11625463338129], [5.145732069173577, 48.11623978063635], [5.145708912043746, 48.11621793125701]]]}}, {"type": "Feature", "properties": {"fid": 38, "id": null, "type": "Bureau", "name": "C2"}, "geometry": {"type": "Polygon", "coordinates": [[[5.145666805403323, 48.116236341458325], [5.145624698733579, 48.11625475164438], [5.1456256201939174, 48.11625571807609], [5.1456064962893695, 48.11626406832051], [5.145642082438002, 48.11630003964727], [5.145703249609287, 48.11627319691454], [5.145666805403323, 48.116236341458325]]]}}, {"type": "Feature", "properties": {"fid": 39, "id": null, "type": "WC", "name": "WC"}, "geometry": {"type": "Polygon", "coordinates": [[[5.1456064962893695, 48.11626406832051], [5.1456256201939174, 48.11625571807609], [5.1455862524234846, 48.11627290757754], [5.145621970405675, 48.11630846532046], [5.145642082438002, 48.11630003964727], [5.1456064962893695, 48.11626406832051]]]}}, {"type": "Feature", "properties": {"fid": 40, "id": null, "type": "WC", "name": "WC"}, "geometry": {"type": "Polygon", "coordinates": [[[5.1455862524234846, 48.11627290757754], [5.1456256201939174, 48.11625571807609], [5.145565853784091, 48.11628181440812], [5.145601409648923, 48.11631777446724], [5.145621970405675, 48.11630846532046], [5.1455862524234846, 48.11627290757754]]]}}]}