{"type": "FeatureCollection", "name": "rdc_bat_A", "features": [{"type": "Feature", "properties": {"fid": 25, "id": null, "type": "Etage", "name": "rez de chauss\u00e9e B\u00e2timent A"}, "geometry": {"type": "Polygon", "coordinates": [[[5.1451613, 48.1164369], [5.1454855, 48.1162948], [5.1455727, 48.1163779], [5.1451416, 48.1165667], [5.1450934, 48.1165193], [5.1450901, 48.1165207], [5.145042, 48.1165157], [5.1450382, 48.1165122], [5.145042, 48.1164983], [5.1450343, 48.116491], [5.1451613, 48.1164369]]]}}, {"type": "Feature", "properties": {"fid": 33, "id": null, "type": "Bureau", "name": "Bureau PMR"}, "geometry": {"type": "Polygon", "coordinates": [[[5.1450343, 48.116491], [5.1450764, 48.1164721], [5.1451017, 48.1164974], [5.1450801, 48.1165063], [5.1450934, 48.1165193], [5.1450901, 48.1165207], [5.145042, 48.1165157], [5.1450382, 48.1165122], [5.145042, 48.1164983], [5.1450343, 48.116491]]]}}, {"type": "Feature", "properties": {"fid": 34, "id": null, "type": "Bureau", "name": "Accueil"}, "geometry": {"type": "Polygon", "coordinates": [[[5.1452451, 48.1165214], [5.1451885, 48.1165462], [5.1451679, 48.1165261], [5.145172, 48.1165121], [5.1451643, 48.1165043], [5.1452082, 48.1164849], [5.1452451, 48.1165214]]]}}, {"type": "Feature", "properties": {"fid": 35, "id": null, "type": "WC", "name": "WC"}, "geometry": {"type": "Polygon", "coordinates": [[[5.1452082, 48.1164849], [5.1452282, 48.1164752], [5.1452658, 48.1165124], [5.1452451, 48.1165214], [5.1452082, 48.1164849]]]}}, {"type": "Feature", "properties": {"fid": 36, "id": null, "type": "WC", "name": "WC"}, "geometry": {"type": "Polygon", "coordinates": [[[5.1452282, 48.1164752], [5.1452484, 48.1164663], [5.1452862, 48.1165034], [5.1452658, 48.1165124], [5.1452282, 48.1164752]]]}}, {"type": "Feature", "properties": {"fid": 37, "id": null, "type": "Bureau", "name": "A3"}, "geometry": {"type": "Polygon", "coordinates": [[[5.1452484, 48.1164663], [5.1452889, 48.1164488], [5.1453262, 48.1164859], [5.1452862, 48.1165034], [5.1452484, 48.1164663]]]}}, {"type": "Feature", "properties": {"fid": 38, "id": null, "type": "Bureau", "name": "A5"}, "geometry": {"type": "Polygon", "coordinates": [[[5.1452889, 48.1164488], [5.1453297, 48.116431], [5.1453666, 48.1164682], [5.1453262, 48.1164859], [5.1452889, 48.1164488]]]}}, {"type": "Feature", "properties": {"fid": 39, "id": null, "type": "Bureau", "name": "A7"}, "geometry": {"type": "Polygon", "coordinates": [[[5.1453297, 48.116431], [5.1453691, 48.1164138], [5.1454066, 48.1164507], [5.1453666, 48.1164682], [5.1453297, 48.116431]]]}}, {"type": "Feature", "properties": {"fid": 40, "id": null, "type": "Bureau", "name": "A9"}, "geometry": {"type": "Polygon", "coordinates": [[[5.1453691, 48.1164138], [5.1454113, 48.1163958], [5.145448, 48.1164326], [5.1454066, 48.1164507], [5.1453691, 48.1164138]]]}}, {"type": "Feature", "properties": {"fid": 41, "id": null, "type": "Bureau", "name": "A11"}, "geometry": {"type": "Polygon", "coordinates": [[[5.1454113, 48.1163958], [5.1454529, 48.1163772], [5.1454898, 48.1164142], [5.145448, 48.1164326], [5.1454113, 48.1163958]]]}}, {"type": "Feature", "properties": {"fid": 42, "id": null, "type": "Bureau", "name": "A13"}, "geometry": {"type": "Polygon", "coordinates": [[[5.1454529, 48.1163772], [5.1454954, 48.1163586], [5.1455314, 48.116396], [5.1454898, 48.1164142], [5.1454529, 48.1163772]]]}}, {"type": "Feature", "properties": {"fid": 44, "id": null, "type": "Salle", "name": "Salle serveur"}, "geometry": {"type": "Polygon", "coordinates": [[[5.1451613, 48.1164369], [5.1452626, 48.1163925], [5.1452887, 48.1164193], [5.1451882, 48.1164635], [5.1451613, 48.1164369]]]}}, {"type": "Feature", "properties": {"fid": 45, "id": null, "type": "Salle", "name": "Archives"}, "geometry": {"type": "Polygon", "coordinates": [[[5.1452626, 48.1163925], [5.1454476, 48.1163114], [5.1454821, 48.1163457], [5.1452974, 48.116428], [5.1452887, 48.1164193], [5.1452626, 48.1163925]]]}}]}